[{"OBJECT_NAME":"STARLINK-2131","OBJECT_ID":"2021-017G","EPOCH":"2026-03-09T15:20:13.953696","MEAN_MOTION":15.06408126,"ECCENTRICITY":0.0001618,"INCLINATION":53.0571,"RA_OF_ASC_NODE":201.8436,"ARG_OF_PERICENTER":125.932,"MEAN_ANOMALY":234.1819,"EPHEMERIS_TYPE":0,"CLASSIFICATION_TYPE":"U","NORAD_CAT_ID":47728,"ELEMENT_SET_NO":999,"REV_AT_EPOCH":27791,"BSTAR":0.00012702,"MEAN_MOTION_DOT":1.611e-5,"MEAN_MOTION_DDOT":0},{"OBJECT_NAME":"THOR ALTAIR DEB","OBJECT_ID":"1966-026D","EPOCH":"2026-03-09T21:08:08.495232","MEAN_MOTION":14.80090516,"ECCENTRICITY":0.01273304,"INCLINATION":98.9687,"RA_OF_ASC_NODE":49.0062,"ARG_OF_PERICENTER":303.87,"MEAN_ANOMALY":55.0446,"EPHEMERIS_TYPE":0,"CLASSIFICATION_TYPE":"U","NORAD_CAT_ID":2177,"ELEMENT_SET_NO":999,"REV_AT_EPOCH":14815,"BSTAR":0.00075855056,"MEAN_MOTION_DOT":6.533e-5,"MEAN_MOTION_DDOT":0}]
